[
  {
    "OBJECT_NAME": "STARLINK-5163",
    "OBJECT_ID": "22136D",
    "EPOCH": "2025-11-11T06:17:40.521984",
    "MEAN_MOTION": 15.08839409,
    "ECCENTRICITY": 0.0001384,
    "INCLINATION": 53.2159,
    "RA_OF_ASC_NODE": 155.8888,
    "ARG_OF_PERICENTER": 89.7078,
    "MEAN_ANOMALY": 270.4073,
    "EPHEMERIS_TYPE": 0,
    "CLASSIFICATION_TYPE": "U",
    "NORAD_CAT_ID": 54054,
    "ELEMENT_SET_NO": 999,
    "REV_AT_EPOCH": 16896,
    "BSTAR": 6.7602e-05,
    "MEAN_MOTION_DOT": 7.88e-06,
    "MEAN_MOTION_DDOT": 0.0,
    "TLE_LINE1": "1 54054U 22136D   25315.26227456  .00000788  00000+0  67602-4 0  9999",
    "TLE_LINE2": "2 54054  53.2159 155.8888 0001384  89.7078 270.4073 15.08839409168963",
    "COMMENT": "Grouped by shell and plane from TLE"
  },
  {
    "OBJECT_NAME": "STARLINK-5158",
    "OBJECT_ID": "22136E",
    "EPOCH": "2025-11-11T06:22:58.894752",
    "MEAN_MOTION": 15.0884443,
    "ECCENTRICITY": 0.0001296,
    "INCLINATION": 53.2168,
    "RA_OF_ASC_NODE": 155.9117,
    "ARG_OF_PERICENTER": 88.4142,
    "MEAN_ANOMALY": 271.6999,
    "EPHEMERIS_TYPE": 0,
    "CLASSIFICATION_TYPE": "U",
    "NORAD_CAT_ID": 54055,
    "ELEMENT_SET_NO": 999,
    "REV_AT_EPOCH": 16896,
    "BSTAR": 0.00015908,
    "MEAN_MOTION_DOT": 2.245e-05,
    "MEAN_MOTION_DDOT": 0.0,
    "TLE_LINE1": "1 54055U 22136E   25315.26595943  .00002245  00000+0  15908-3 0  9990",
    "TLE_LINE2": "2 54055  53.2168 155.9117 0001296  88.4142 271.6999 15.08844430168960",
    "COMMENT": "Grouped by shell and plane from TLE"
  },
  {
    "OBJECT_NAME": "STARLINK-5226",
    "OBJECT_ID": "22136F",
    "EPOCH": "2025-11-11T06:38:46.792608",
    "MEAN_MOTION": 15.08843322,
    "ECCENTRICITY": 0.0001404,
    "INCLINATION": 53.2152,
    "RA_OF_ASC_NODE": 155.2808,
    "ARG_OF_PERICENTER": 88.1723,
    "MEAN_ANOMALY": 271.943,
    "EPHEMERIS_TYPE": 0,
    "CLASSIFICATION_TYPE": "U",
    "NORAD_CAT_ID": 54056,
    "ELEMENT_SET_NO": 999,
    "REV_AT_EPOCH": 16897,
    "BSTAR": 0.00011526,
    "MEAN_MOTION_DOT": 1.547e-05,
    "MEAN_MOTION_DDOT": 0.0,
    "TLE_LINE1": "1 54056U 22136F   25315.27693047  .00001547  00000+0  11526-3 0  9992",
    "TLE_LINE2": "2 54056  53.2152 155.2808 0001404  88.1723 271.9430 15.08843322168970",
    "COMMENT": "Grouped by shell and plane from TLE"
  },
  {
    "OBJECT_NAME": "STARLINK-5167",
    "OBJECT_ID": "22136H",
    "EPOCH": "2025-11-10T23:40:13.113696",
    "MEAN_MOTION": 15.08814711,
    "ECCENTRICITY": 0.0001709,
    "INCLINATION": 53.2155,
    "RA_OF_ASC_NODE": 157.0096,
    "ARG_OF_PERICENTER": 87.6703,
    "MEAN_ANOMALY": 272.4485,
    "EPHEMERIS_TYPE": 0,
    "CLASSIFICATION_TYPE": "U",
    "NORAD_CAT_ID": 54058,
    "ELEMENT_SET_NO": 999,
    "REV_AT_EPOCH": 16892,
    "BSTAR": 0.00010680000000000001,
    "MEAN_MOTION_DOT": 1.411e-05,
    "MEAN_MOTION_DDOT": 0.0,
    "TLE_LINE1": "1 54058U 22136H   25314.98626289  .00001411  00000+0  10680-3 0  9995",
    "TLE_LINE2": "2 54058  53.2155 157.0096 0001709  87.6703 272.4485 15.08814711168925",
    "COMMENT": "Grouped by shell and plane from TLE"
  },
  {
    "OBJECT_NAME": "STARLINK-5173",
    "OBJECT_ID": "22136J",
    "EPOCH": "2025-11-11T06:07:02.329248",
    "MEAN_MOTION": 15.08846574,
    "ECCENTRICITY": 0.0001449,
    "INCLINATION": 53.2146,
    "RA_OF_ASC_NODE": 155.8434,
    "ARG_OF_PERICENTER": 88.4959,
    "MEAN_ANOMALY": 271.6199,
    "EPHEMERIS_TYPE": 0,
    "CLASSIFICATION_TYPE": "U",
    "NORAD_CAT_ID": 54059,
    "ELEMENT_SET_NO": 999,
    "REV_AT_EPOCH": 16896,
    "BSTAR": 9.8998e-05,
    "MEAN_MOTION_DOT": 1.288e-05,
    "MEAN_MOTION_DDOT": 0.0,
    "TLE_LINE1": "1 54059U 22136J   25315.25488807  .00001288  00000+0  98998-4 0  9990",
    "TLE_LINE2": "2 54059  53.2146 155.8434 0001449  88.4959 271.6199 15.08846574168960",
    "COMMENT": "Grouped by shell and plane from TLE"
  },
  {
    "OBJECT_NAME": "STARLINK-5170",
    "OBJECT_ID": "22136M",
    "EPOCH": "2025-11-10T21:59:31.381152",
    "MEAN_MOTION": 15.08842437,
    "ECCENTRICITY": 0.0001379,
    "INCLINATION": 53.2157,
    "RA_OF_ASC_NODE": 157.2852,
    "ARG_OF_PERICENTER": 74.9354,
    "MEAN_ANOMALY": 285.1791,
    "EPHEMERIS_TYPE": 0,
    "CLASSIFICATION_TYPE": "U",
    "NORAD_CAT_ID": 54062,
    "ELEMENT_SET_NO": 999,
    "REV_AT_EPOCH": 16891,
    "BSTAR": 0.00014816999999999999,
    "MEAN_MOTION_DOT": 2.071e-05,
    "MEAN_MOTION_DDOT": 0.0,
    "TLE_LINE1": "1 54062U 22136M   25314.91633543  .00002071  00000+0  14817-3 0  9993",
    "TLE_LINE2": "2 54062  53.2157 157.2852 0001379  74.9354 285.1791 15.08842437168914",
    "COMMENT": "Grouped by shell and plane from TLE"
  },
  {
    "OBJECT_NAME": "STARLINK-5225",
    "OBJECT_ID": "22136N",
    "EPOCH": "2025-11-10T23:29:35.972448",
    "MEAN_MOTION": 15.08840805,
    "ECCENTRICITY": 9.67e-05,
    "INCLINATION": 53.2158,
    "RA_OF_ASC_NODE": 156.9657,
    "ARG_OF_PERICENTER": 83.9215,
    "MEAN_ANOMALY": 276.1888,
    "EPHEMERIS_TYPE": 0,
    "CLASSIFICATION_TYPE": "U",
    "NORAD_CAT_ID": 54063,
    "ELEMENT_SET_NO": 999,
    "REV_AT_EPOCH": 16892,
    "BSTAR": 7.1724e-05,
    "MEAN_MOTION_DOT": 8.54e-06,
    "MEAN_MOTION_DDOT": 0.0,
    "TLE_LINE1": "1 54063U 22136N   25314.97888857  .00000854  00000+0  71724-4 0  9998",
    "TLE_LINE2": "2 54063  53.2158 156.9657 0000967  83.9215 276.1888 15.08840805168928",
    "COMMENT": "Grouped by shell and plane from TLE"
  },
  {
    "OBJECT_NAME": "STARLINK-5187",
    "OBJECT_ID": "22136Q",
    "EPOCH": "2025-11-10T23:18:59.359968",
    "MEAN_MOTION": 15.08844574,
    "ECCENTRICITY": 0.0001478,
    "INCLINATION": 53.2156,
    "RA_OF_ASC_NODE": 156.9191,
    "ARG_OF_PERICENTER": 92.8211,
    "MEAN_ANOMALY": 267.295,
    "EPHEMERIS_TYPE": 0,
    "CLASSIFICATION_TYPE": "U",
    "NORAD_CAT_ID": 54065,
    "ELEMENT_SET_NO": 999,
    "REV_AT_EPOCH": 16892,
    "BSTAR": 9.965500000000001e-05,
    "MEAN_MOTION_DOT": 1.299e-05,
    "MEAN_MOTION_DDOT": 0.0,
    "TLE_LINE1": "1 54065U 22136Q   25314.97152037  .00001299  00000+0  99655-4 0  9991",
    "TLE_LINE2": "2 54065  53.2156 156.9191 0001478  92.8211 267.2950 15.08844574168922",
    "COMMENT": "Grouped by shell and plane from TLE"
  },
  {
    "OBJECT_NAME": "STARLINK-5151",
    "OBJECT_ID": "22136R",
    "EPOCH": "2025-11-10T23:24:17.805312",
    "MEAN_MOTION": 15.08830871,
    "ECCENTRICITY": 0.0001571,
    "INCLINATION": 53.2148,
    "RA_OF_ASC_NODE": 156.9491,
    "ARG_OF_PERICENTER": 94.0117,
    "MEAN_ANOMALY": 266.1055,
    "EPHEMERIS_TYPE": 0,
    "CLASSIFICATION_TYPE": "U",
    "NORAD_CAT_ID": 54066,
    "ELEMENT_SET_NO": 999,
    "REV_AT_EPOCH": 16892,
    "BSTAR": 0.0,
    "MEAN_MOTION_DOT": -1.781e-05,
    "MEAN_MOTION_DDOT": 0.0,
    "TLE_LINE1": "1 54066U 22136R   25314.97520608 -.00001781  00000+0 -93855-4 0  9999",
    "TLE_LINE2": "2 54066  53.2148 156.9491 0001571  94.0117 266.1055 15.08830871168929",
    "COMMENT": "Grouped by shell and plane from TLE"
  },
  {
    "OBJECT_NAME": "STARLINK-5174",
    "OBJECT_ID": "22136S",
    "EPOCH": "2025-11-11T07:05:18.150144",
    "MEAN_MOTION": 15.08843975,
    "ECCENTRICITY": 0.000154,
    "INCLINATION": 53.2137,
    "RA_OF_ASC_NODE": 155.3881,
    "ARG_OF_PERICENTER": 86.4106,
    "MEAN_ANOMALY": 273.7062,
    "EPHEMERIS_TYPE": 0,
    "CLASSIFICATION_TYPE": "U",
    "NORAD_CAT_ID": 54067,
    "ELEMENT_SET_NO": 999,
    "REV_AT_EPOCH": 16897,
    "BSTAR": 6.628e-05,
    "MEAN_MOTION_DOT": 7.67e-06,
    "MEAN_MOTION_DDOT": 0.0,
    "TLE_LINE1": "1 54067U 22136S   25315.29534896  .00000767  00000+0  66280-4 0  9993",
    "TLE_LINE2": "2 54067  53.2137 155.3881 0001540  86.4106 273.7062 15.08843975168979",
    "COMMENT": "Grouped by shell and plane from TLE"
  },
  {
    "OBJECT_NAME": "STARLINK-5222",
    "OBJECT_ID": "22136T",
    "EPOCH": "2025-11-10T23:13:41.760480",
    "MEAN_MOTION": 15.08850147,
    "ECCENTRICITY": 0.000152,
    "INCLINATION": 53.216,
    "RA_OF_ASC_NODE": 156.8975,
    "ARG_OF_PERICENTER": 86.367,
    "MEAN_ANOMALY": 273.7496,
    "EPHEMERIS_TYPE": 0,
    "CLASSIFICATION_TYPE": "U",
    "NORAD_CAT_ID": 54068,
    "ELEMENT_SET_NO": 999,
    "REV_AT_EPOCH": 16892,
    "BSTAR": 0.00013062000000000002,
    "MEAN_MOTION_DOT": 1.792e-05,
    "MEAN_MOTION_DDOT": 0.0,
    "TLE_LINE1": "1 54068U 22136T   25314.96784445  .00001792  00000+0  13062-3 0  9992",
    "TLE_LINE2": "2 54068  53.2160 156.8975 0001520  86.3670 273.7496 15.08850147168924",
    "COMMENT": "Grouped by shell and plane from TLE"
  },
  {
    "OBJECT_NAME": "STARLINK-5181",
    "OBJECT_ID": "22136V",
    "EPOCH": "2025-11-11T06:54:40.175136",
    "MEAN_MOTION": 15.08873751,
    "ECCENTRICITY": 7.56e-05,
    "INCLINATION": 53.2211,
    "RA_OF_ASC_NODE": 155.342,
    "ARG_OF_PERICENTER": 105.6599,
    "MEAN_ANOMALY": 254.4477,
    "EPHEMERIS_TYPE": 0,
    "CLASSIFICATION_TYPE": "U",
    "NORAD_CAT_ID": 54070,
    "ELEMENT_SET_NO": 999,
    "REV_AT_EPOCH": 16897,
    "BSTAR": 0.00033717,
    "MEAN_MOTION_DOT": 5.087e-05,
    "MEAN_MOTION_DDOT": 0.0,
    "TLE_LINE1": "1 54070U 22136V   25315.28796499  .00005087  00000+0  33717-3 0  9993",
    "TLE_LINE2": "2 54070  53.2211 155.3420 0000756 105.6599 254.4477 15.08873751168974",
    "COMMENT": "Grouped by shell and plane from TLE"
  },
  {
    "OBJECT_NAME": "STARLINK-5168",
    "OBJECT_ID": "22136W",
    "EPOCH": "2025-11-11T06:49:23.509632",
    "MEAN_MOTION": 15.08844176,
    "ECCENTRICITY": 0.0001741,
    "INCLINATION": 53.2155,
    "RA_OF_ASC_NODE": 155.3209,
    "ARG_OF_PERICENTER": 87.5756,
    "MEAN_ANOMALY": 272.5435,
    "EPHEMERIS_TYPE": 0,
    "CLASSIFICATION_TYPE": "U",
    "NORAD_CAT_ID": 54071,
    "ELEMENT_SET_NO": 999,
    "REV_AT_EPOCH": 16897,
    "BSTAR": 0.00018325,
    "MEAN_MOTION_DOT": 2.63e-05,
    "MEAN_MOTION_DDOT": 0.0,
    "TLE_LINE1": "1 54071U 22136W   25315.28429988  .00002630  00000+0  18325-3 0  9999",
    "TLE_LINE2": "2 54071  53.2155 155.3209 0001741  87.5756 272.5435 15.08844176168979",
    "COMMENT": "Grouped by shell and plane from TLE"
  }
]